STARLINK-5377           
1 56141U 23046BB  24073.87409038  .00000677  00000+0  65193-4 0  9994
2 56141  43.0001 129.5732 0001207 271.6138  88.4566 15.02540815 53572
STARLINK-5376           
1 56142U 23046BC  24073.88520218  .00004437  00000+0  34325-3 0  9990
2 56142  43.0016 129.6574 0001305 261.8629  98.2066 15.02545295 53031
STARLINK-5016           
1 56143U 23046BD  24073.86854331 -.00000433  00000+0 -16974-4 0  9990
2 56143  43.0019 129.5308 0001148 269.6093  90.4618 15.02533216 53032
STARLINK-5374           
1 56144U 23046BE  24073.87852541 -.00001398  00000+0 -88410-4 0  9998
2 56144  43.0018 129.6075 0001279 276.0491  84.0205 15.02552812 53037
STARLINK-5370           
1 56145U 23046BF  24074.25001157  .01393672  00000+0  14148-1 0  9993
2 56145  43.0004  82.9364 0001464 265.1986 133.7449 15.61642915 54143
STARLINK-5111           
1 56146U 23046BG  24073.87076129  .00004889  00000+0  37660-3 0  9996
2 56146  43.0009 129.5479 0001222 265.0169  95.0534 15.02547099 53032
STARLINK-5140           
1 56147U 23046BH  24074.17858454 -.00055484  00000+0 -40936-2 0  9998
2 56147  43.0036  89.3409 0001156 262.4808  97.5904 15.02821540 54064
STARLINK-5089           
1 56148U 23046BJ  24073.45169040 -.00000161  00000+0  31417-5 0  9993
2 56148  43.0028  93.3498 0001008 267.5842  92.4885 15.02534765 53419
STARLINK-30107          
1 56287U 23056B   24073.76308325  .00000684  00000+0  65719-4 0  9993
2 56287  42.9995 194.9208 0000656 247.8266 112.2507 15.02533723 50872
STARLINK-30106          
1 56288U 23056C   24073.59683763  .00002865  00000+0  22712-3 0  9995
2 56288  43.0025 195.4170 0001354 273.1566  86.9121 15.02530976 50803
STARLINK-30095          
1 56289U 23056D   24074.22559290  .00007594  00000+0  57644-3 0  9990
2 56289  42.9986 166.2352 0000232 333.2325  26.8505 15.02548378 50603
STARLINK-30103          
1 56290U 23056E   24073.72645704  .00002642  00000+0  21059-3 0  9992
2 56290  43.0018 194.6698 0001413 266.0298  94.0383 15.02537426 50822
STARLINK-30113          
1 56291U 23056F   24073.73310915 -.00000987  00000+0 -57996-4 0  9999
2 56291  43.0012 194.7137 0001148 284.4127  75.6588 15.02540775 50829
STARLINK-30098          
1 56292U 23056G   24073.72311351  .00002766  00000+0  21964-3 0  9994
2 56292  43.0020 194.6360 0001354 276.1875  83.8813 15.02552603 50828
STARLINK-30090          
1 56293U 23056H   24073.78306089  .00003903  00000+0  30378-3 0  9996
2 56293  43.0019 195.0632 0001302 267.5448  92.5245 15.02542484 50829
STARLINK-30049          
1 56294U 23056J   24073.64676512  .00007786  00000+0  59057-3 0  9991
2 56294  43.0025 195.7059 0001294 284.8712  75.1987 15.02552213 50802
STARLINK-30083          
1 56295U 23056K   24074.23890780 -.00001171  00000+0 -71651-4 0  9992
2 56295  43.0016 166.3213 0002020 277.1926  82.8686 15.02532747 50596
STARLINK-30089          
1 56296U 23056L   24073.57438871  .00001885  00000+0  15456-3 0  9998
2 56296  43.0027 156.9001 0001064 274.2997  85.7724 15.02530401 50648
STARLINK-30086          
1 56297U 23056M   24073.82621572  .00015189  00000+0  11362-2 0  9992
2 56297  43.0020 194.4737 0001103 277.3903  82.6814 15.02564327 50235
STARLINK-30109          
1 56298U 23056N   24073.63344202  .00001718  00000+0  14218-3 0  9991
2 56298  42.9999 195.6091 0000726 272.7108  87.3651 15.02542841 50868
STARLINK-30108          
1 56299U 23056P   24073.73347703  .00006650  00000+0  50666-3 0  9999
2 56299  43.0018 182.5046 0001328 279.5979  80.4713 15.02551312 50369
STARLINK-30104          
1 56300U 23056Q   24073.71979476  .00013961  00000+0  10461-2 0  9999
2 56300  43.0021 194.6197 0001353 281.6636  78.4054 15.02551036 50884
STARLINK-30101          
1 56301U 23056R   24073.68328194  .00015638  00000+0  11697-2 0  9996
2 56301  43.0022 195.1838 0001223 267.3564  92.7138 15.02548601 50876
STARLINK-30111          
1 56302U 23056S   24073.61014251 -.00000659  00000+0 -33751-4 0  9992
2 56302  43.0021 195.4334 0001354 270.5910  89.4777 15.02527310 50209
STARLINK-30097          
1 56303U 23056T   24073.66275876  .00026441  00000+0  76971-3 0  9995
2 56303  42.9994 156.7141 0030178  16.9019 343.2834 15.34467682 50666
STARLINK-30099          
1 56304U 23056U   24073.73976691  .00009361  00000+0  70701-3 0  9994
2 56304  43.0017 194.6749 0001277 278.3343  81.7355 15.02540271 50227
STARLINK-30094          
1 56305U 23056V   24073.91668981  .00011883  00000+0  89337-3 0  9992
2 56305  43.0022 193.6624 0001451 272.1337 344.0984 15.02529002  5800
STARLINK-30112          
1 56306U 23056W   24073.61346707  .00008132  00000+0  61617-3 0  9993
2 56306  43.0033 195.4595 0001443 273.9511  86.1166 15.02546341 50861
STARLINK-6038           
1 56317U 23058A   24073.96605381  .00000290  00000+0  27147-4 0  9999
2 56317  97.6573  76.0787 0001955 120.0423 240.0996 15.01261427 48896
STARLINK-5954           
1 56318U 23058B   24073.96234061 -.00002355  00000+0 -17877-3 0  9997
2 56318  97.6600  76.0890 0001771  95.3233 264.8193 15.01266952 48893
STARLINK-6039           
1 56319U 23058C   24073.96049644  .00000525  00000+0  45462-4 0  9996
2 56319  97.6592  76.0945 0001484  93.1870 266.9524 15.01262742 48893
STARLINK-5988           
1 56320U 23058D   24073.96629914  .00000483  00000+0  42175-4 0  9993
2 56320  97.6575  76.0786 0002099 124.7650 235.3772 15.01260455 48905
STARLINK-5876           
1 56321U 23058E   24073.95494121  .00045715  00000+0  35369-2 0  9995
2 56321  97.6556  76.1041 0002446 109.2203 250.9286 15.01300197 48897
STARLINK-6033           
1 56322U 23058F   24073.96419019 -.00003181  00000+0 -24306-3 0  9993
2 56322  97.6586  76.0832 0002214 104.8382 255.3087 15.01269998 48756
STARLINK-6035           
1 56323U 23058G   24073.95679391  .00000721  00000+0  60723-4 0  9993
2 56323  97.6597  76.1035 0001859  93.2759 266.8678 15.01260419 48884
STARLINK-6034           
1 56324U 23058H   24073.95864624  .00000521  00000+0  45130-4 0  9992
2 56324  97.6591  76.0995 0000906 100.9044 259.2282 15.01259862 48896
STARLINK-5981           
1 56325U 23058J   24074.01603494 -.00000709  00000+0 -50632-4 0  9990
2 56325  97.6584  76.1846 0002680  80.3895 279.7632 15.01256411 48760
STARLINK-5980           
1 56326U 23058K   24073.95888943  .00000678  00000+0  57336-4 0  9998
2 56326  97.6596  76.0988 0001722  91.3277 268.8144 15.01263371 48896
STARLINK-5997           
1 56327U 23058L   24073.94407920  .00000221  00000+0  21812-4 0  9994
2 56327  97.6573  76.1256 0003509  68.2593 291.9005 15.01261170 49248
STARLINK-5992           
1 56328U 23058M   24073.95123810  .00000873  00000+0  72545-4 0  9991
2 56328  97.6585  76.1145 0002027  90.4475 269.6981 15.01262018 49246
STARLINK-5984           
1 56329U 23058N   24073.94753772  .00000233  00000+0  22724-4 0  9991
2 56329  97.6566  76.1208 0003255  75.4218 284.7367 15.01260336 49245
STARLINK-5967           
1 56330U 23058P   24073.95148829  .00000083  00000+0  11089-4 0  9990
2 56330  97.6586  76.1140 0002542  86.4038 273.7477 15.01259096 49245
STARLINK-5991           
1 56331U 23058Q   24074.20859116 -.00001644  00000+0 -12336-3 0  9999
2 56331  97.6563  76.3911 0003906  64.8104 295.3525 15.01262943 48796
STARLINK-5093           
1 56332U 23058R   24074.01974184  .00001007  00000+0  82959-4 0  9992
2 56332  97.6580  76.1769 0002095  89.8785 270.2679 15.01262739 48767
STARLINK-5553           
1 56333U 23058S   24073.94013165  .00000094  00000+0  11926-4 0  9998
2 56333  97.6570  76.1317 0003336  63.8100 296.3467 15.01259366 49248
STARLINK-5548           
1 56334U 23058T   24073.94383608 -.00000066  00000+0 -49549-6 0  9996
2 56334  97.6576  76.1258 0003227  76.4747 283.6837 15.01258321 49245
STARLINK-5559           
1 56335U 23058U   24074.00144905  .00002406  00000+0  19174-3 0  9996
2 56335  97.6572  76.2021 0003064  54.4225 305.7285 15.01280580 48768
STARLINK-5562           
1 56336U 23058V   24073.94568707  .00000231  00000+0  22602-4 0  9994
2 56336  97.6565  76.1232 0003439  66.8222 293.3364 15.01260065 49244
STARLINK-5561           
1 56337U 23058W   24073.93667284 -.00000675  00000+0 -47970-4 0  9993
2 56337  97.6562  76.1334 0002988  61.3724 298.7801 15.01256373 49242
STARLINK-5554           
1 56338U 23058X   24074.00491651 -.00000138  00000+0 -61262-5 0  9991
2 56338  97.6571  76.1988 0003084  51.7448 308.4054 15.01263305 48760
STARLINK-5552           
1 56339U 23058Y   24073.93086872  .00000327  00000+0  30044-4 0  9999
2 56339  97.6562  76.1406 0002250  78.2814 281.8663 15.01261891 49243
STARLINK-5540           
1 56340U 23058Z   24073.93642565  .00000304  00000+0  28291-4 0  9994
2 56340  97.6566  76.1353 0003376  47.3584 312.7924 15.01260821 49247
STARLINK-5543           
1 56341U 23058AA  24074.25001157 -.00004643  00000+0 -35732-3 0  9996
2 56341  97.6561  76.4476 0002881  55.9053 207.9390 15.01238406 48805
STARLINK-5955           
1 56342U 23058AB  24073.93271719 -.00004030  00000+0 -30913-3 0  9990
2 56342  97.6563  76.1381 0003093  50.6488 309.5010 15.01281550 49245
STARLINK-5976           
1 56343U 23058AC  24073.92531320  .00000028  00000+0  68070-5 0  9995
2 56343  97.6553  76.1461 0001843  83.3472 276.7961 15.01260485 49245
STARLINK-5974           
1 56344U 23058AD  24073.92901632  .00000254  00000+0  24346-4 0  9991
2 56344  97.6563  76.1419 0002679  47.4222 312.7227 15.01262942 49248
STARLINK-5979           
1 56345U 23058AE  24073.92346186 -.00000091  00000+0 -24690-5 0  9993
2 56345  97.6555  76.1484 0002075  92.5598 267.5864 15.01260492 49241
STARLINK-5837           
1 56346U 23058AF  24073.92716572 -.00000130  00000+0 -55358-5 0  9993
2 56346  97.6560  76.1444 0002001  88.4313 271.7140 15.01259775 49248
STARLINK-5829           
1 56347U 23058AG  24073.92161018 -.00000041  00000+0  14265-5 0  9995
2 56347  97.6551  76.1497 0001564  93.4709 266.6694 15.01257815 49245
